{
  "norad_id": 63714,
  "name": "STARLINK-33745",
  "history": [
    {
      "epoch": "2026-03-28T10:36:10.071072",
      "apogee_km": 476.20538452895744,
      "perigee_km": 474.32796312654864,
      "latitude_deg": 53.103654835376496,
      "longitude_deg": -126.18880991986953,
      "semi_major_axis_km": 6853.403673827753,
      "eccentricity": 0.00013697,
      "inclination_deg": 53.1602,
      "raan_deg": 132.2378,
      "arg_perigee_deg": 95.5528,
      "mean_anomaly_deg": 264.5629,
      "mean_motion_rev_day": 15.30182717
    }
  ]
}