{"fetched_at":"2026-03-29T02:12:04Z","count":15717,"tles":[{"name":"STARLINK-33745","line1":"1 63714U 25087T   26087.44178323  .00034627  00000+0  11764-2 0  9990","line2":"2 63714  53.1602 132.2378 0001369  95.5528 264.5629 15.30182717 52072","category":"Starlink"}]}